NORAD_CAT_ID,OBJECT_NAME,OBJECT_TYPE,EPOCH,MEAN_MOTION,ECCENTRICITY,INCLINATION,RA_OF_ASC_NODE,ARG_OF_PERICENTER,MEAN_ANOMALY,BSTAR,MEAN_MOTION_DOT,MEAN_MOTION_DDOT,TLE_LINE0,TLE_LINE1,TLE_LINE2,SEMIMAJOR_AXIS,PERIOD,APOGEE,PERIGEE,DECAYED
54209.0,STARLINK-5259,PAYLOAD,2023-09-20 10:24:03,15.08833655,0.0001571,53.2162,69.6752,83.9401,276.177,-8.6786e-05,-1.669e-05,0.0,0 STARLINK-5259,1 54209U 22141BE  23263.43336936 -.00001669  00000-0 -86786-4 0  9996,2 54209  53.2162  69.6752 0001571  83.9401 276.1770 15.08833655 50318,6917.9,95.438,540.852,538.678,0.0
54209.0,STARLINK-5259,PAYLOAD,2023-09-20 18:20:59,15.08828473,0.000119,53.2163,68.1885,77.8483,282.2642,-0.0001041,-1.944e-05,0.0,0 STARLINK-5259,1 54209U 22141BE  23263.76457466 -.00001944  00000-0 -10410-3 0  9990,2 54209  53.2163  68.1885 0001190  77.8483 282.2642 15.08828473 50137,6917.916,95.438,540.604,538.957,0.0
54209.0,STARLINK-5259,PAYLOAD,2023-09-21 11:50:13,15.08837387,0.0001219,53.2168,64.9169,76.97,283.1428,1.8484e-05,6e-08,0.0,0 STARLINK-5259,1 54209U 22141BE  23264.49321428  .00000006  00000-0  18484-4 0  9995,2 54209  53.2168  64.9169 0001219  76.9700 283.1428 15.08837387 50243,6917.888,95.438,540.597,538.91,0.0
54209.0,STARLINK-5259,PAYLOAD,2023-09-21 16:36:22,15.08844249,0.0001235,53.2171,64.0254,82.0374,278.0759,0.00012852,1.758e-05,0.0,0 STARLINK-5259,1 54209U 22141BE  23264.69193137  .00001758  00000-0  12852-3 0  9998,2 54209  53.2171  64.0254 0001235  82.0374 278.0759 15.08844249 50500,6917.867,95.437,540.587,538.878,0.0
54209.0,STARLINK-5259,PAYLOAD,2023-09-21 19:47:09,15.08846444,0.0001249,53.2172,63.431,84.305,275.8084,0.0002866,4.277e-05,0.0,0 STARLINK-5259,1 54209U 22141BE  23264.82441128  .00004277  00000-0  28660-3 0  9992,2 54209  53.2172  63.4310 0001249  84.3050 275.8084 15.08846444 50299,6917.861,95.437,540.59,538.862,0.0
54209.0,STARLINK-5259,PAYLOAD,2023-09-22 10:05:37,15.08841746,0.0001285,53.2164,60.7535,77.1891,282.9244,0.00026447,3.924e-05,0.0,0 STARLINK-5259,1 54209U 22141BE  23265.42057483  .00003924  00000-0  26447-3 0  9995,2 54209  53.2164  60.7535 0001285  77.1891 282.9244 15.08841746 50615,6917.875,95.437,540.629,538.851,0.0
54209.0,STARLINK-5259,PAYLOAD,2023-09-22 18:02:33,15.08853256,0.0001242,53.2171,59.268,79.9882,280.125,0.00045765,7.006e-05,0.0,0 STARLINK-5259,1 54209U 22141BE  23265.75177104  .00007006  00000-0  45765-3 0  9993,2 54209  53.2171  59.2680 0001242  79.9882 280.1250 15.08853256 50436,6917.84,95.437,540.564,538.846,0.0
54209.0,STARLINK-5259,PAYLOAD,2023-09-23 09:56:24,15.08825156,0.0001171,53.2169,56.2943,92.8962,267.2164,-0.00040342,-6.7e-05,0.0,0 STARLINK-5259,1 54209U 22141BE  23266.41417589 -.00006700  00000-0 -40342-3 0  9999,2 54209  53.2169  56.2943 0001171  92.8962 267.2164 15.08825156 50760,6917.926,95.438,540.601,538.981,0.0
54209.0,STARLINK-5259,PAYLOAD,2023-09-23 16:17:59,15.08798181,0.0001264,53.2164,55.1045,87.3113,272.8024,-0.0006911,-0.00011257,0.0,0 STARLINK-5259,1 54209U 22141BE  23266.67915522 -.00011257  00000-0 -69110-3 0  9994,2 54209  53.2164  55.1045 0001264  87.3113 272.8024 15.08798181 50805,6918.008,95.44,540.748,538.999,0.0
54209.0,STARLINK-5259,PAYLOAD,2023-09-24 09:47:13,15.08833625,0.0001429,53.2168,51.8342,92.808,267.3076,0.00023678,3.482e-05,0.0,0 STARLINK-5259,1 54209U 22141BE  23267.40779259  .00003482  00000-0  23678-3 0  9999,2 54209  53.2168  51.8342 0001429  92.8080 267.3076 15.08833625 50910,6917.9,95.438,540.753,538.776,0.0
54209.0,STARLINK-5259,PAYLOAD,2023-09-24 12:57:59,15.08839853,0.0001525,53.2167,51.2401,99.2542,260.8622,0.00035898,5.43e-05,0.0,0 STARLINK-5259,1 54209U 22141BE  23267.54027064  .00005430  00000-0  35898-3 0  9996,2 54209  53.2167  51.2401 0001525  99.2542 260.8622 15.08839853 50701,6917.881,95.438,540.801,538.691,0.0
54209.0,STARLINK-5259,PAYLOAD,2023-09-24 19:19:32,15.08853115,0.0002215,53.216,50.0479,113.1818,246.9408,0.0011608,0.00018241,0.0,0 STARLINK-5259,1 54209U 22141BE  23267.80523150  .00018241  00000-0  11608-2 0  9998,2 54209  53.2160  50.0479 0002215 113.1818 246.9408 15.08853115 50743,6917.84,95.437,541.238,538.173,0.0
54209.0,STARLINK-5259,PAYLOAD,2023-09-25 12:48:45,15.08873462,0.0002268,53.2165,46.7749,115.5313,244.5914,0.0007269,0.0001131,0.0,0 STARLINK-5259,1 54209U 22141BE  23268.53385925  .00011310  00000-0  72690-3 0  9994,2 54209  53.2165  46.7749 0002268 115.5313 244.5914 15.08873462 50859,6917.778,95.435,541.212,538.074,0.0
54209.0,STARLINK-5259,PAYLOAD,2023-09-25 15:59:31,15.08880065,0.0001564,53.2177,46.1832,87.5291,272.588,0.00086424,0.00013508,0.0,0 STARLINK-5259,1 54209U 22141BE  23268.66633684  .00013508  00000-0  86424-3 0  9997,2 54209  53.2177  46.1832 0001564  87.5291 272.5880 15.08880065 50872,6917.758,95.435,540.705,538.541,0.0
54209.0,STARLINK-5259,PAYLOAD,2023-09-26 14:14:55,15.08845853,0.0001594,53.217,42.0191,107.4644,252.6522,0.00050258,7.721e-05,0.0,0 STARLINK-5259,1 54209U 22141BE  23269.59369906  .00007721  00000-0  50258-3 0  9999,2 54209  53.2170  42.0191 0001594 107.4644 252.6522 15.08845853 51010,6917.862,95.437,540.83,538.625,0.0
54209.0,STARLINK-5259,PAYLOAD,2023-09-26 15:50:18,15.08841419,0.0001498,53.2168,41.7215,99.1138,261.0024,0.00029699,4.442e-05,0.0,0 STARLINK-5259,1 54209U 22141BE  23269.65994022  .00004442  00000-0  29699-3 0  9991,2 54209  53.2168  41.7215 0001498  99.1138 261.0024 15.08841419 51259,6917.876,95.437,540.777,538.705,0.0
54209.0,STARLINK-5259,PAYLOAD,2023-09-26 19:01:05,15.08842175,0.0001453,53.2167,41.1268,75.5027,284.6127,0.00015157,2.125e-05,0.0,0 STARLINK-5259,1 54209U 22141BE  23269.79242102  .00002125  00000-0  15157-3 0  9991,2 54209  53.2167  41.1268 0001453  75.5027 284.6127 15.08842175 51048,6917.874,95.437,540.744,538.734,0.0
54209.0,STARLINK-5259,PAYLOAD,2023-09-27 12:30:19,15.0884922,0.0001534,53.2172,37.8558,101.2897,258.8268,0.00041986,6.402e-05,0.0,0 STARLINK-5259,1 54209U 22141BE  23270.52105809  .00006402  00000-0  41986-3 0  9997,2 54209  53.2172  37.8558 0001534 101.2897 258.8268 15.08849220 51159,6917.852,95.437,540.778,538.656,0.0
54209.0,STARLINK-5259,PAYLOAD,2023-09-28 12:21:06,15.0884194,0.0001405,53.217,33.3964,91.9922,268.1231,6.6873e-05,7.77e-06,0.0,0 STARLINK-5259,1 54209U 22141BE  23271.51465769  .00000777  00000-0  66873-4 0  9993,2 54209  53.2170  33.3964 0001405  91.9922 268.1231 15.08841940 51537,6917.874,95.437,540.711,538.767,0.0
54209.0,STARLINK-5259,PAYLOAD,2023-09-28 13:56:29,15.08844428,0.0001428,53.2177,33.0976,93.2339,266.8817,0.00016528,2.344e-05,0.0,0 STARLINK-5259,1 54209U 22141BE  23271.58089791  .00002344  00000-0  16528-3 0  9990,2 54209  53.2177  33.0976 0001428  93.2339 266.8817 15.08844428 51311,6917.867,95.437,540.72,538.744,0.0
54209.0,STARLINK-5259,PAYLOAD,2023-09-28 15:31:52,15.0884435,0.0001429,53.2177,32.8001,87.9213,272.1943,0.00015431,2.169e-05,0.0,0 STARLINK-5259,1 54209U 22141BE  23271.64713766  .00002169  00000-0  15431-3 0  9990,2 54209  53.2177  32.8001 0001429  87.9213 272.1943 15.08844350 51324,6917.867,95.437,540.721,538.744,0.0
54209.0,STARLINK-5259,PAYLOAD,2023-09-29 09:01:07,15.0883567,0.0001397,53.2172,29.5311,87.3628,272.7524,-2.786e-05,-7.31e-06,0.0,0 STARLINK-5259,1 54209U 22141BE  23272.37578194 -.00000731  00000-0 -27860-4 0  9990,2 54209  53.2172  29.5311 0001397  87.3628 272.7524 15.08835670 51667,6917.894,95.438,540.725,538.792,0.0
54209.0,STARLINK-5259,PAYLOAD,2023-09-29 13:47:16,15.0884155,0.0001496,53.2173,28.641,73.2742,286.8414,6.701e-05,7.79e-06,0.0,0 STARLINK-5259,1 54209U 22141BE  23272.57450124  .00000779  00000-0  67010-4 0  9995,2 54209  53.2173  28.6410 0001496  73.2742 286.8414 15.08841550 51465,6917.876,95.437,540.776,538.706,0.0
54209.0,STARLINK-5259,PAYLOAD,2023-09-29 15:22:39,15.08847647,0.0001406,53.2175,28.3416,87.8559,272.2594,0.00019061,2.748e-05,0.0,0 STARLINK-5259,1 54209U 22141BE  23272.64073799  .00002748  00000-0  19061-3 0  9992,2 54209  53.2175  28.3416 0001406  87.8559 272.2594 15.08847647 51706,6917.857,95.437,540.695,538.749,0.0
54209.0,STARLINK-5259,PAYLOAD,2023-10-01 00:45:45,15.08849209,0.0001509,53.218,22.0988,87.2234,272.893,0.00023221,3.41e-05,0.0,0 STARLINK-5259,1 54209U 22141BE  23274.03177640  .00003410  00000-0  23221-3 0  9997,2 54209  53.2180  22.0988 0001509  87.2234 272.8930 15.08849209 51914,6917.852,95.437,540.761,538.673,0.0
54209.0,STARLINK-5259,PAYLOAD,2023-10-01 13:28:50,15.08850365,0.0001373,53.218,19.7178,95.8725,264.2424,0.00011545,1.55e-05,0.0,0 STARLINK-5259,1 54209U 22141BE  23274.56169189  .00001550  00000-0  11545-3 0  9993,2 54209  53.2180  19.7178 0001373  95.8725 264.2424 15.08850365 51768,6917.849,95.437,540.664,538.764,0.0
54209.0,STARLINK-5259,PAYLOAD,2023-10-02 00:36:32,15.08841,0.0001562,53.2183,17.6358,83.8471,276.2699,-3.1745e-05,-7.93e-06,0.0,0 STARLINK-5259,1 54209U 22141BE  23275.02537541 -.00000793  00000-0 -31745-4 0  9991,2 54209  53.2183  17.6358 0001562  83.8471 276.2699 15.08841000 52060,6917.877,95.437,540.823,538.662,0.0
54209.0,STARLINK-5259,PAYLOAD,2023-10-02 13:19:38,15.08834467,0.0001584,53.2183,15.2587,87.5842,272.5332,-0.00016729,-2.949e-05,0.0,0 STARLINK-5259,1 54209U 22141BE  23275.55530296 -.00002949  00000-0 -16729-3 0  9998,2 54209  53.2183  15.2587 0001584  87.5842 272.5332 15.08834467 52146,6917.897,95.438,540.858,538.667,0.0
54209.0,STARLINK-5259,PAYLOAD,2023-10-03 13:10:24,15.08850838,0.0001586,53.2182,10.7995,82.9327,277.1846,0.00033171,4.997e-05,0.0,0 STARLINK-5259,1 54209U 22141BE  23276.54890007  .00004997  00000-0  33171-3 0  9990,2 54209  53.2182  10.7995 0001586  82.9327 277.1846 15.08850838 52294,6917.847,95.437,540.809,538.615,0.0
54209.0,STARLINK-5259,PAYLOAD,2023-10-04 09:50:25,15.08856591,0.0001575,53.218,6.9335,87.23,272.8872,0.0005505,8.488e-05,0.0,0 STARLINK-5259,1 54209U 22141BE  23277.41002121  .00008488  00000-0  55050-3 0  9998,2 54209  53.2180   6.9335 0001575  87.2300 272.8872 15.08856591 52422,6917.83,95.437,540.784,538.605,0.0
